M  44.76010 +/- 0.00048             (J2000 ecliptic)
n   0.08379800 +/- 3.3e-7           Peri.  335.22481 +/- 0.0008
a   5.17186194 +/- 1.36e-5          Node   301.63919 +/- 0.00031
e   0.1237472 +/- 2.95e-6           Incl.    8.91919 +/- 0.000053

M  44.76010 +/- 0.00049             (J2000 ecliptic)
n   0.08379800 +/- 3.4e-7           Peri.  335.22472 +/- 0.0008
a   5.17186182 +/- 1.4e-5           Node   301.63928 +/- 0.00032
e   0.1237472 +/- 3.03e-6           Incl.    8.91919 +/- 0.000055

M  44.76012 +/- 0.00049             (J2000 ecliptic)
n   0.08379802 +/- 3.37e-7          Peri.  335.22468 +/- 0.0008
a   5.17186112 +/- 1.39e-5          Node   301.63927 +/- 0.00032
e   0.1237473 +/- 3.01e-6           Incl.    8.91919 +/- 0.000054

M  44.76013 +/- 0.00048             (J2000 ecliptic)
n   0.08379803 +/- 3.3e-7           Peri.  335.22470 +/- 0.0008
a   5.17186092 +/- 1.36e-5          Node   301.63923 +/- 0.00031
e   0.1237473 +/- 2.95e-6           Incl.    8.91919 +/- 0.000053

M  44.76008 +/- 0.00048             (J2000 ecliptic)
n   0.08379800 +/- 3.34e-7          Peri.  335.22476 +/- 0.0008
a   5.17186208 +/- 1.38e-5          Node   301.63926 +/- 0.00032
e   0.1237472 +/- 2.99e-6           Incl.    8.91919 +/- 0.000054

M  44.76011 +/- 0.00049             (J2000 ecliptic)
n   0.08379801 +/- 3.41e-7          Peri.  335.22473 +/- 0.0008
a   5.17186154 +/- 1.4e-5           Node   301.63925 +/- 0.00032
e   0.1237472 +/- 3.04e-6           Incl.    8.91919 +/- 0.000055

M  44.76012 +/- 0.00049             (J2000 ecliptic)
n   0.08379802 +/- 3.36e-7          Peri.  335.22467 +/- 0.0008
a   5.17186117 +/- 1.38e-5          Node   301.63929 +/- 0.00032
e   0.1237473 +/- 3e-6              Incl.    8.91919 +/- 0.000054

M  44.76011 +/- 0.00049             (J2000 ecliptic)
n   0.08379801 +/- 3.4e-7           Peri.  335.22473 +/- 0.0008
a   5.17186149 +/- 1.4e-5           Node   301.63924 +/- 0.00032
e   0.1237472 +/- 3.04e-6           Incl.    8.91919 +/- 0.000055

M  44.76010 +/- 0.00049             (J2000 ecliptic)
n   0.08379801 +/- 3.38e-7          Peri.  335.22472 +/- 0.0008
a   5.17186172 +/- 1.39e-5          Node   301.63928 +/- 0.00032
e   0.1237472 +/- 3.02e-6           Incl.    8.91919 +/- 0.000054

M  44.76011 +/- 0.00049             (J2000 ecliptic)
n   0.08379801 +/- 3.39e-7          Peri.  335.22474 +/- 0.0008
a   5.17186147 +/- 1.39e-5          Node   301.63924 +/- 0.00032
e   0.1237472 +/- 3.03e-6           Incl.    8.91919 +/- 0.000054

M  44.76011 +/- 0.00049             (J2000 ecliptic)
n   0.08379801 +/- 3.37e-7          Peri.  335.22474 +/- 0.0008
a   5.17186145 +/- 1.39e-5          Node   301.63923 +/- 0.00032
e   0.1237472 +/- 3.01e-6           Incl.    8.91919 +/- 0.000054

M  44.76010 +/- 0.00049             (J2000 ecliptic)
n   0.08379801 +/- 3.39e-7          Peri.  335.22473 +/- 0.0008
a   5.17186159 +/- 1.39e-5          Node   301.63926 +/- 0.00032
e   0.1237472 +/- 3.03e-6           Incl.    8.91919 +/- 0.000055

M  44.76010 +/- 0.00049             (J2000 ecliptic)
n   0.08379802 +/- 3.36e-7          Peri.  335.22472 +/- 0.0008
a   5.17186135 +/- 1.38e-5          Node   301.63925 +/- 0.00032
e   0.1237473 +/- 3e-6              Incl.    8.91919 +/- 0.000054

M  44.76069 +/- 0.0012              (J2000 ecliptic)
n   0.08379765 +/- 7.83e-7          Peri.  335.22472 +/- 0.0008
a   5.17187639 +/- 3.22e-5          Node   301.63927 +/- 0.00032
e   0.1237443 +/- 6.53e-6           Incl.    8.91919 +/- 0.000055

M  44.76005 +/- 0.00048             (J2000 ecliptic)
n   0.08379791 +/- 3.74e-7          Peri.  335.22505 +/- 0.0008
a   5.17186568 +/- 1.54e-5          Node   301.63911 +/- 0.00031
e   0.1237462 +/- 3.44e-6           Incl.    8.91915 +/- 0.000057

M  44.75995 +/- 0.00050             (J2000 ecliptic)
n   0.08379812 +/- 3.46e-7          Peri.  335.22476 +/- 0.0008
a   5.17185715 +/- 1.42e-5          Node   301.63924 +/- 0.00036
e   0.1237484 +/- 3.15e-6           Incl.    8.91919 +/- 0.00006

M  44.76019 +/- 0.00050             (J2000 ecliptic)
n   0.08379798 +/- 3.38e-7          Peri.  335.22463 +/- 0.0008
a   5.17186285 +/- 1.39e-5          Node   301.63930 +/- 0.00035
e   0.1237469 +/- 3.05e-6           Incl.    8.91920 +/- 0.00006

M  44.76040 +/- 0.0011              (J2000 ecliptic)
n   0.08379820 +/- 7.65e-7          Peri.  335.22388 +/- 0.0021
a   5.17185360 +/- 3.15e-5          Node   301.63955 +/- 0.00036
e   0.1237489 +/- 6.61e-6           Incl.    8.91923 +/- 0.000057

